[{"OBJECT_NAME":"TIANPING 2B","OBJECT_ID":"2022-032C","EPOCH":"2026-03-09T22:22:05.849760","MEAN_MOTION":15.01267566,"ECCENTRICITY":0.00208707,"INCLINATION":97.6053,"RA_OF_ASC_NODE":116.3222,"ARG_OF_PERICENTER":130.0797,"MEAN_ANOMALY":230.2261,"EPHEMERIS_TYPE":0,"CLASSIFICATION_TYPE":"U","NORAD_CAT_ID":52155,"ELEMENT_SET_NO":999,"REV_AT_EPOCH":21538,"BSTAR":0.00026542484,"MEAN_MOTION_DOT":3.368e-5,"MEAN_MOTION_DDOT":0},{"OBJECT_NAME":"STARLINK-34397","OBJECT_ID":"2025-126N","EPOCH":"2026-03-09T22:16:12.669888","MEAN_MOTION":14.98338673,"ECCENTRICITY":0.00026294,"INCLINATION":70.0029,"RA_OF_ASC_NODE":34.0108,"ARG_OF_PERICENTER":253.7036,"MEAN_ANOMALY":106.3834,"EPHEMERIS_TYPE":0,"CLASSIFICATION_TYPE":"U","NORAD_CAT_ID":64356,"ELEMENT_SET_NO":999,"REV_AT_EPOCH":4071,"BSTAR":0.00047942477,"MEAN_MOTION_DOT":5.633e-5,"MEAN_MOTION_DDOT":0}]
